{
  "type": "FeatureCollection",
  "features": [
    {
      "type": "Feature",
      "properties": {
        "norad_id": 43602,
        "name": "BEIDOU-3 M12 (C26)",
        "group": "beidou",
        "lat": 49.938375290099714,
        "lon": -52.19569446911631,
        "alt_km": 21512.650762371894,
        "timestamp": "2025-12-22T09:53:37.667141+00:00",
        "meta_object_name": "BEIDOU-3 M12 (C26)",
        "meta_object_id": "2018-067A",
        "meta_epoch": "2025-12-19T13:33:24.239232",
        "meta_mean_motion": 1.86227856,
        "meta_eccentricity": 0.00092481,
        "meta_inclination": 54.1835,
        "meta_ra_of_asc_node": 187.1314,
        "meta_arg_of_pericenter": 41.3287,
        "meta_mean_anomaly": 318.7989,
        "meta_ephemeris_type": 0,
        "meta_classification_type": "U",
        "meta_norad_cat_id": 43602,
        "meta_element_set_no": 999,
        "meta_rev_at_epoch": 4977,
        "meta_bstar": 0,
        "meta_mean_motion_dot": 1.01e-06,
        "meta_mean_motion_ddot": 0,
        "tle_line1": "1 43602U 18067A   25353.56486388  .00000101  00000+0  00000+0 0  9993",
        "tle_line2": "2 43602  54.1835 187.1314 0009248  41.3287 318.7989  1.86227856 49773"
      },
      "geometry": {
        "type": "Point",
        "coordinates": [
          -52.19569446911631,
          49.938375290099714
        ]
      }
    },
    {
      "type": "Feature",
      "properties": {
        "norad_id": 43603,
        "name": "BEIDOU-3 M11 (C25)",
        "group": "beidou",
        "lat": 15.175704637801896,
        "lon": -161.6935293419487,
        "alt_km": 21511.718418753746,
        "timestamp": "2025-12-22T09:53:37.667152+00:00",
        "meta_object_name": "BEIDOU-3 M11 (C25)",
        "meta_object_id": "2018-067B",
        "meta_epoch": "2025-12-21T20:19:59.001024",
        "meta_mean_motion": 1.86227373,
        "meta_eccentricity": 0.0005649,
        "meta_inclination": 54.1806,
        "meta_ra_of_asc_node": 187.018,
        "meta_arg_of_pericenter": 37.4949,
        "meta_mean_anomaly": 322.5886,
        "meta_ephemeris_type": 0,
        "meta_classification_type": "U",
        "meta_norad_cat_id": 43603,
        "meta_element_set_no": 999,
        "meta_rev_at_epoch": 4984,
        "meta_bstar": 0,
        "meta_mean_motion_dot": 9.4e-07,
        "meta_mean_motion_ddot": 0,
        "tle_line1": "1 43603U 18067B   25355.84721066  .00000094  00000+0  00000+0 0  9993",
        "tle_line2": "2 43603  54.1806 187.0180 0005649  37.4949 322.5886  1.86227373 49845"
      },
      "geometry": {
        "type": "Point",
        "coordinates": [
          -161.6935293419487,
          15.175704637801896
        ]
      }
    },
    {
      "type": "Feature",
      "properties": {
        "norad_id": 43622,
        "name": "BEIDOU-3 M13 (C32)",
        "group": "beidou",
        "lat": 38.299089448916874,
        "lon": 100.0496958582371,
        "alt_km": 21529.235366216228,
        "timestamp": "2025-12-22T09:53:37.667163+00:00",
        "meta_object_name": "BEIDOU-3 M13 (C32)",
        "meta_object_id": "2018-072A",
        "meta_epoch": "2025-12-21T06:24:05.172192",
        "meta_mean_motion": 1.86231118,
        "meta_eccentricity": 0.00062116,
        "meta_inclination": 56.4663,
        "meta_ra_of_asc_node": 68.5379,
        "meta_arg_of_pericenter": 298.3671,
        "meta_mean_anomaly": 61.6165,
        "meta_ephemeris_type": 0,
        "meta_classification_type": "U",
        "meta_norad_cat_id": 43622,
        "meta_element_set_no": 999,
        "meta_rev_at_epoch": 4934,
        "meta_bstar": 0,
        "meta_mean_motion_dot": -3.6e-07,
        "meta_mean_motion_ddot": 0,
        "tle_line1": "1 43622U 18072A   25355.26672653 -.00000036  00000+0  00000+0 0  9990",
        "tle_line2": "2 43622  56.4663  68.5379 0006211 298.3671  61.6165  1.86231118 49349"
      },
      "geometry": {
        "type": "Point",
        "coordinates": [
          100.0496958582371,
          38.299089448916874
        ]
      }
    },
    {
      "type": "Feature",
      "properties": {
        "norad_id": 43623,
        "name": "BEIDOU-3 M14 (C33)",
        "group": "beidou",
        "lat": 33.73945282809068,
        "lon": -137.7349481352265,
        "alt_km": 21533.79660005831,
        "timestamp": "2025-12-22T09:53:37.667174+00:00",
        "meta_object_name": "BEIDOU-3 M14 (C33)",
        "meta_object_id": "2018-072B",
        "meta_epoch": "2025-12-22T04:56:47.689728",
        "meta_mean_motion": 1.86231163,
        "meta_eccentricity": 0.0003576,
        "meta_inclination": 56.4687,
        "meta_ra_of_asc_node": 68.5008,
        "meta_arg_of_pericenter": 327.1514,
        "meta_mean_anomaly": 32.8768,
        "meta_ephemeris_type": 0,
        "meta_classification_type": "U",
        "meta_norad_cat_id": 43623,
        "meta_element_set_no": 999,
        "meta_rev_at_epoch": 4935,
        "meta_bstar": 0,
        "meta_mean_motion_dot": -3e-07,
        "meta_mean_motion_ddot": 0,
        "tle_line1": "1 43623U 18072B   25356.20610752 -.00000030  00000+0  00000+0 0  9992",
        "tle_line2": "2 43623  56.4687  68.5008 0003576 327.1514  32.8768  1.86231163 49353"
      },
      "geometry": {
        "type": "Point",
        "coordinates": [
          -137.7349481352265,
          33.73945282809068
        ]
      }
    },
    {
      "type": "Feature",
      "properties": {
        "norad_id": 43647,
        "name": "BEIDOU-3 M16 (C35)",
        "group": "beidou",
        "lat": 25.8832922062378,
        "lon": -33.40555170007144,
        "alt_km": 21504.64424424612,
        "timestamp": "2025-12-22T09:53:37.667185+00:00",
        "meta_object_name": "BEIDOU-3 M16 (C35)",
        "meta_object_id": "2018-078A",
        "meta_epoch": "2025-12-21T06:57:26.662752",
        "meta_mean_motion": 1.86232383,
        "meta_eccentricity": 0.00073912,
        "meta_inclination": 54.254,
        "meta_ra_of_asc_node": 306.2225,
        "meta_arg_of_pericenter": 20.1589,
        "meta_mean_anomaly": 339.8673,
        "meta_ephemeris_type": 0,
        "meta_classification_type": "U",
        "meta_norad_cat_id": 43647,
        "meta_element_set_no": 999,
        "meta_rev_at_epoch": 4884,
        "meta_bstar": 0,
        "meta_mean_motion_dot": -6.2e-07,
        "meta_mean_motion_ddot": 0,
        "tle_line1": "1 43647U 18078A   25355.28989193 -.00000062  00000+0  00000+0 0  9994",
        "tle_line2": "2 43647  54.2540 306.2225 0007391  20.1589 339.8673  1.86232383 48840"
      },
      "geometry": {
        "type": "Point",
        "coordinates": [
          -33.40555170007144,
          25.8832922062378
        ]
      }
    },
    {
      "type": "Feature",
      "properties": {
        "norad_id": 43648,
        "name": "BEIDOU-3 M15 (C34)",
        "group": "beidou",
        "lat": -41.15709913235143,
        "lon": -92.81407013076958,
        "alt_km": 21529.598571060065,
        "timestamp": "2025-12-22T09:53:37.667196+00:00",
        "meta_object_name": "BEIDOU-3 M15 (C34)",
        "meta_object_id": "2018-078B",
        "meta_epoch": "2025-12-21T10:03:31.527360",
        "meta_mean_motion": 1.86232375,
        "meta_eccentricity": 0.0004048,
        "meta_inclination": 54.2499,
        "meta_ra_of_asc_node": 306.2186,
        "meta_arg_of_pericenter": 19.7002,
        "meta_mean_anomaly": 340.3131,
        "meta_ephemeris_type": 0,
        "meta_classification_type": "U",
        "meta_norad_cat_id": 43648,
        "meta_element_set_no": 999,
        "meta_rev_at_epoch": 4886,
        "meta_bstar": 0,
        "meta_mean_motion_dot": -6.1e-07,
        "meta_mean_motion_ddot": 0,
        "tle_line1": "1 43648U 18078B   25355.41911490 -.00000061  00000+0  00000+0 0  9994",
        "tle_line2": "2 43648  54.2499 306.2186 0004048  19.7002 340.3131  1.86232375 48869"
      },
      "geometry": {
        "type": "Point",
        "coordinates": [
          -92.81407013076958,
          -41.15709913235143
        ]
      }
    },
    {
      "type": "Feature",
      "properties": {
        "norad_id": 43683,
        "name": "BEIDOU-3 G1 (C59)",
        "group": "beidou",
        "lat": -2.6071068340701244,
        "lon": 19.610117178630198,
        "alt_km": 35791.52996668513,
        "timestamp": "2025-12-22T09:53:37.667208+00:00",
        "meta_object_name": "BEIDOU-3 G1 (C59)",
        "meta_object_id": "2018-085A",
        "meta_epoch": "2025-12-22T03:34:38.782272",
        "meta_mean_motion": 1.00267839,
        "meta_eccentricity": 0.0001532,
        "meta_inclination": 2.63,
        "meta_ra_of_asc_node": 102.6901,
        "meta_arg_of_pericenter": 45.1792,
        "meta_mean_anomaly": 136.7491,
        "meta_ephemeris_type": 0,
        "meta_classification_type": "U",
        "meta_norad_cat_id": 43683,
        "meta_element_set_no": 999,
        "meta_rev_at_epoch": 2628,
        "meta_bstar": 0,
        "meta_mean_motion_dot": -2.58e-06,
        "meta_mean_motion_ddot": 0,
        "tle_line1": "1 43683U 18085A   25356.14905998 -.00000258  00000+0  00000+0 0  9996",
        "tle_line2": "2 43683   2.6300 102.6901 0001532  45.1792 136.7491  1.00267839 26280"
      },
      "geometry": {
        "type": "Point",
        "coordinates": [
          19.610117178630198,
          -2.6071068340701244
        ]
      }
    }
  ]
}